QIANFAN-41              
1 62242U 24232F   25295.21315022  .00000155  00000+0  22117-3 0  9994
2 62242  89.0031  46.3843 0013025 346.9044  13.1767 13.50979753 92294
QIANFAN-42              
1 62243U 24232G   25295.21108219  .00000896  00000+0  38086-3 0  9997
2 62243  89.0028  43.2299 0013121 248.9048 111.0743 14.24403820 94039
QIANFAN-43              
1 62244U 24232H   25295.20906141  .00000147  00000+0  20871-3 0  9999
2 62244  89.0035  46.4477 0014672 351.7629   8.3279 13.50980702 60909
QIANFAN-44              
1 62245U 24232J   25295.19664757  .00000164  00000+0  23554-3 0  9992
2 62245  89.0034  46.2606 0012833 349.5431  10.5451 13.50981968 92372
QIANFAN-45              
1 62246U 24232K   25295.23787534  .00000168  00000+0  24149-3 0  9992
2 62246  89.0037  46.4011 0013458 348.7218  11.3630 13.50978588 92301
QIANFAN-46              
1 62247U 24232L   25295.18846848  .00000148  00000+0  21028-3 0  9992
2 62247  89.0034  46.4772 0013702 354.6448   5.4555 13.50979115 92257
QIANFAN-47              
1 62248U 24232M   25295.19258984  .00000160  00000+0  22921-3 0  9999
2 62248  89.0030  46.4118 0014092 353.5668   6.5300 13.50980918 92289
QIANFAN-48              
1 62249U 24232N   25295.15563998  .00000160  00000+0  22933-3 0  9993
2 62249  89.0033  46.4154 0016404 355.4515   4.6485 13.50976892 92283
